HORIZONS-3E             
1 43633U 18074B   26158.45739162 -.00000018  00000+0  00000+0 0  9996
2 43633   0.0039 234.7712 0000924  10.5113 344.2332  1.00263363 28246
AEHF-4 (USA 288)        
1 43651U 18079A   26158.47483573 -.00000261  00000+0  00000+0 0  9995
2 43651   1.4293   3.0993 0060635 357.0142 359.0870  1.00276735 28199
BEIDOU-3 G1             
1 43683U 18085A   26158.44857561 -.00000094  00000+0  00000+0 0  9990
2 43683   2.8429  97.6509 0008544 346.6229 133.0498  1.00271827 27960
GSAT-29                 
1 43698U 18089A   26158.42781073  .00000100  00000+0  00000+0 0  9999
2 43698   0.0445 114.4492 0003642 318.6275  31.7984  1.00271396 27692
ES'HAIL 2               
1 43700U 18090A   26158.20812331  .00000158  00000+0  00000+0 0  9996
2 43700   0.0112  38.9909 0001929  72.2005 245.1501  1.00273643 27570
GEO-KOMPSAT-2A          
1 43823U 18100A   26158.44228411 -.00000329  00000+0  00000+0 0  9991
2 43823   0.0496 134.0305 0002359 309.3152  99.9900  1.00271497 27533
GSAT-11                 
1 43824U 18100B   26158.43153741 -.00000063  00000+0  00000+0 0  9999
2 43824   0.0521 256.5612 0007929 188.9625  39.6753  1.00271616 27381
GSAT-7A                 
1 43864U 18105A   26158.13447851  .00000041  00000+0  00000+0 0  9998
2 43864   0.0202 257.7275 0002330 161.2988 307.7409  1.00269278 27340
COSMOS 2533             
1 43867U 18107A   26158.00297760 -.00000025  00000+0  00000+0 0  9994
2 43867   0.0463  97.2057 0000560 358.9855 230.2964  1.00273352 27342
TJS-3                   
1 43874U 18110A   26158.75589888 -.00000201  00000+0  00000+0 0  9999
2 43874   2.5195  80.6060 0001979  73.9109 162.0070  1.00273399 27329
ZHONGXING-2D            
1 43920U 19001A   26158.51393431 -.00000322  00000+0  00000+0 0  9996
2 43920   0.0463  86.7617 0000785 287.5667 196.6196  1.00269721 53980
HELLAS-SAT 4 & SGS-1    
1 44034U 19007A   26158.49590542  .00000167  00000+0  00000+0 0  9994
2 44034   0.0641 135.3187 0005035   3.9100 334.2194  1.00270892 27275
GSAT-31                 
1 44035U 19007B   26158.21245668  .00000140  00000+0  00000+0 0  9992
2 44035   0.0898 261.8093 0002101 108.0152  10.1092  1.00268002 26867
NUSANTARA SATU          
1 44048U 19009A   26158.52197777  .00000000  00000+0  00000+0 0  9994
2 44048   0.0164  93.0953 0004510  22.8947 113.8498  1.00265100 26674
ZHONGXING-6C            
1 44067U 19012A   26158.51402097 -.00000321  00000+0  00000+0 0  9999
2 44067   0.1397  80.2995 0013430 330.2486 160.8336  1.00269291 26648
WGS 10 (USA 291)        
1 44071U 19014A   26158.71396587  .00000062  00000+0  00000+0 0  9995
2 44071   0.0181   6.2881 0000147 292.5293 274.6439  1.00268447 26529
TIANLIAN 2-01           
1 44076U 19017A   26158.43214406 -.00000092  00000+0  00000+0 0  9995
2 44076   0.5138  83.1284 0000884   4.7486  40.5587  1.00271549 26551
ARABSAT-6A              
1 44186U 19021A   26158.28037387  .00000168  00000+0  00000+0 0  9999
2 44186   0.0537  15.3153 0000746  48.9884 322.8238  1.00273671 26054
BEIDOU-3 IGSO-1         
1 44204U 19023A   26157.95428288 -.00000215  00000+0  00000+0 0  9993
2 44204  58.6799  37.7569 0025419 225.7371  92.8010  1.00294902  7100
BEIDOU-2 G8             
1 44231U 19027A   26158.51679432 -.00000232  00000+0  00000+0 0  9998
2 44231   1.6330  74.4868 0010595 284.4148 227.5758  1.00274845 25988
YAMAL 601               
1 44307U 19031A   26158.64044359  .00000135  00000+0  00000+0 0  9996
2 44307   0.0166  15.6564 0002459  61.6569  98.2929  1.00271197 25838
AT&T T-16               
1 44333U 19034A   26158.39689512 -.00000101  00000+0  00000+0 0  9990
2 44333   0.0211  62.8087 0000497 205.3448  29.6836  1.00271029 25531
EUTELSAT 7C             
1 44334U 19034B   26158.34697184  .00000063  00000+0  00000+0 0  9996
2 44334   0.0740 175.2018 0003205 247.0757 325.3875  1.00270898  6731
BEIDOU-3 IGSO-2         
1 44337U 19035A   26157.58006347 -.00000062  00000+0  00000+0 0  9990
2 44337  55.2446 158.9549 0039839 216.2059 208.5586  1.00270343 25569
COSMOS 2539             
1 44457U 19048A   26157.63499046  .00000094  00000+0  00000+0 0  9999
2 44457   0.0370  96.4456 0000415  52.5217 346.6880  1.00269386 25122
EDRS-C                  
1 44475U 19049A   26158.43447726 -.00000247  00000+0  00000+0 0  9998
2 44475   0.0078  95.5575 0001157   0.1761  99.0327  1.00271933 25111
INTELSAT 39 (IS-39)     
1 44476U 19049B   26158.42919740  .00000048  00000+0  00000+0 0  9996
2 44476   0.0173 311.3729 0000784  10.2839 150.6478  1.00270553 25030
AMOS-17                 
1 44479U 19050A   26158.49147580  .00000124  00000+0  00000+0 0  9998
2 44479   0.0183 321.8248 0001673 137.7426 350.2617  1.00270011 25099
AEHF-5 (USA 292)        
1 44481U 19051A   26158.43535074 -.00000244  00000+0  00000+0 0  9999
2 44481   1.4626 335.3954 0067067   1.0585 169.1498  1.00268215 25166
EUTELSAT 5 WEST B       
1 44624U 19067A   26158.34463183 -.00000028  00000+0  00000+0 0  9996
2 44624   0.0638 344.0775 0003235  92.6359 298.1144  1.00272063 24338
TJS-4                   
1 44637U 19070A   26158.50474545 -.00000155  00000+0  00000+0 0  9997
2 44637   0.0145 282.8368 0004945 116.6680 121.6413  1.00270530 24443
BEIDOU-3 IGSO-3         
1 44709U 19073A   26136.81046384 -.00000217  00000+0  00000+0 0  9995
2 44709  54.8566 281.2355 0042953 189.4588 170.3676  1.00246251 24144
