OBJECT_NAME,OBJECT_ID,EPOCH,MEAN_MOTION,ECCENTRICITY,INCLINATION,RA_OF_ASC_NODE,ARG_OF_PERICENTER,MEAN_ANOMALY,EPHEMERIS_TYPE,CLASSIFICATION_TYPE,NORAD_CAT_ID,ELEMENT_SET_NO,REV_AT_EPOCH,BSTAR,MEAN_MOTION_DOT,MEAN_MOTION_DDOT
HORIZONS-3E,2018-074B,2026-06-07T10:58:38.635968,1.00263363,.0000924,0.0039,234.7712,10.5113,344.2332,0,U,43633,999,2824,0,-.18E-6,0
AEHF-4 (USA 288),2018-079A,2026-06-07T11:23:45.807072,1.00276735,.0060635,1.4293,3.0993,357.0142,359.0870,0,U,43651,999,2819,0,-.261E-5,0
BEIDOU-3 G1,2018-085A,2026-06-07T10:45:56.932704,1.00271827,.0008544,2.8429,97.6509,346.6229,133.0498,0,U,43683,999,2796,0,-.94E-6,0
GSAT-29,2018-089A,2026-06-07T10:16:02.847072,1.00271396,.0003642,0.0445,114.4492,318.6275,31.7984,0,U,43698,999,2769,0,.1E-5,0
ES'HAIL 2,2018-090A,2026-06-07T04:59:41.853984,1.00273643,.0001929,0.0112,38.9909,72.2005,245.1501,0,U,43700,999,2757,0,.158E-5,0
GEO-KOMPSAT-2A,2018-100A,2026-06-07T10:36:53.347104,1.00271497,.0002359,0.0496,134.0305,309.3152,99.9900,0,U,43823,999,2753,0,-.329E-5,0
GSAT-11,2018-100B,2026-06-07T10:21:24.832224,1.00271616,.0007929,0.0521,256.5612,188.9625,39.6753,0,U,43824,999,2738,0,-.63E-6,0
GSAT-7A,2018-105A,2026-06-07T03:13:38.943264,1.00269278,.000233,0.0202,257.7275,161.2988,307.7409,0,U,43864,999,2734,0,.41E-6,0
COSMOS 2533,2018-107A,2026-06-07T00:04:17.264640,1.00273352,.000056,0.0463,97.2057,358.9855,230.2964,0,U,43867,999,2734,0,-.25E-6,0
TJS-3,2018-110A,2026-06-07T18:08:29.663232,1.00273399,.0001979,2.5195,80.6060,73.9109,162.0070,0,U,43874,999,2732,0,-.201E-5,0
ZHONGXING-2D,2019-001A,2026-06-07T12:20:03.924384,1.00269721,.0000785,0.0463,86.7617,287.5667,196.6196,0,U,43920,999,5398,0,-.322E-5,0
HELLAS-SAT 4 & SGS-1,2019-007A,2026-06-07T11:54:06.228288,1.00270892,.0005035,0.0641,135.3187,3.9100,334.2194,0,U,44034,999,2727,0,.167E-5,0
GSAT-31,2019-007B,2026-06-07T05:05:56.257152,1.00268002,.0002101,0.0898,261.8093,108.0152,10.1092,0,U,44035,999,2686,0,.14E-5,0
NUSANTARA SATU,2019-009A,2026-06-07T12:31:38.879328,1.00265100,.000451,0.0164,93.0953,22.8947,113.8498,0,U,44048,999,2667,0,0,0
ZHONGXING-6C,2019-012A,2026-06-07T12:20:11.411808,1.00269291,.001343,0.1397,80.2995,330.2486,160.8336,0,U,44067,999,2664,0,-.321E-5,0
WGS 10 (USA 291),2019-014A,2026-06-07T17:08:06.651168,1.00268447,.0000147,0.0181,6.2881,292.5293,274.6439,0,U,44071,999,2652,0,.62E-6,0
TIANLIAN 2-01,2019-017A,2026-06-07T10:22:17.246784,1.00271549,.0000884,0.5138,83.1284,4.7486,40.5587,0,U,44076,999,2655,0,-.92E-6,0
ARABSAT-6A,2019-021A,2026-06-07T06:43:44.302368,1.00273671,.0000746,0.0537,15.3153,48.9884,322.8238,0,U,44186,999,2605,0,.168E-5,0
BEIDOU-3 IGSO-1,2019-023A,2026-06-06T22:54:10.040832,1.00294902,.0025419,58.6799,37.7569,225.7371,92.8010,0,U,44204,999,710,0,-.215E-5,0
BEIDOU-2 G8,2019-027A,2026-06-07T12:24:11.029248,1.00274845,.0010595,1.6330,74.4868,284.4148,227.5758,0,U,44231,999,2598,0,-.232E-5,0
YAMAL 601,2019-031A,2026-06-07T15:22:14.326176,1.00271197,.0002459,0.0166,15.6564,61.6569,98.2929,0,U,44307,999,2583,0,.135E-5,0
AT&T T-16,2019-034A,2026-06-07T09:31:31.738368,1.00271029,.0000497,0.0211,62.8087,205.3448,29.6836,0,U,44333,999,2553,0,-.101E-5,0
EUTELSAT 7C,2019-034B,2026-06-07T08:19:38.366976,1.00270898,.0003205,0.0740,175.2018,247.0757,325.3875,0,U,44334,999,673,0,.63E-6,0
BEIDOU-3 IGSO-2,2019-035A,2026-06-06T13:55:17.483808,1.00270343,.00398392,55.2446,158.9549,216.2059,208.5586,0,U,44337,999,2556,0,-.62E-6,0
COSMOS 2539,2019-048A,2026-06-06T15:14:23.175744,1.00269386,.00004153,0.0370,96.4456,52.5217,346.6880,0,U,44457,999,2512,0,.94E-6,0
EDRS-C,2019-049A,2026-06-07T10:25:38.835264,1.00271933,.0001157,0.0078,95.5575,0.1761,99.0327,0,U,44475,999,2511,0,-.247E-5,0
INTELSAT 39 (IS-39),2019-049B,2026-06-07T10:18:02.655360,1.00270553,.0000784,0.0173,311.3729,10.2839,150.6478,0,U,44476,999,2503,0,.48E-6,0
AMOS-17,2019-050A,2026-06-07T11:47:43.509120,1.00270011,.0001673,0.0183,321.8248,137.7426,350.2617,0,U,44479,999,2509,0,.124E-5,0
AEHF-5 (USA 292),2019-051A,2026-06-07T10:26:54.303936,1.00268215,.0067067,1.4626,335.3954,1.0585,169.1498,0,U,44481,999,2516,0,-.244E-5,0
EUTELSAT 5 WEST B,2019-067A,2026-06-07T08:16:16.190112,1.00272063,.0003235,0.0638,344.0775,92.6359,298.1144,0,U,44624,999,2433,0,-.28E-6,0
TJS-4,2019-070A,2026-06-07T12:06:50.006880,1.00270530,.0004945,0.0145,282.8368,116.6680,121.6413,0,U,44637,999,2444,0,-.155E-5,0
BEIDOU-3 IGSO-3,2019-073A,2026-05-16T19:27:04.075776,1.00246251,.0042953,54.8566,281.2355,189.4588,170.3676,0,U,44709,999,2414,0,-.217E-5,0
